From: horizons@ssd.jpl.nasa.gov (Horizons Ephemeris System)
Subject: [Horizons] SMALL BODY #C(500@10)_T(La Sagra (P/2012 S2)) (1/1)
Date: March 1, 2021 at 1:23:18 PM PST

Automated mail xmit by MAIL_REQUEST, PID= 2301 Mon Mar  1 13:23:18 2021
++++++++++++++++++++++++++++++++ (part 1 of 1)  +++++++++++++++++++++++++++++++
*******************************************************************************
JPL/HORIZONS                La_Sagra (P/2012 S2)           2021-Mar-01 13:23:18
Rec #:90004057 (+COV) Soln.date: 2014-Jun-13_19:44:57      # obs: 376 (86 days)

IAU76/J2000 helio. ecliptic osc. elements (au, days, deg., period=Julian yrs):

 EPOCH=  2456230.5 ! 2012-Oct-30.0000000 (TDB)    RMSW= n.a.
  EC= .6905906287277457   QR= 1.371192077185982   TP= 2456158.3780870959
  OM= 52.60270731513823   W= 312.0744899879285    IN= 8.581808204347372
  A= 4.431643655613287    MA= 7.61945771306266    ADIST= 7.492095234040593
  PER= 9.329437555807999  N= .105646914           ANGMOM= .026190864
  DAN= 1.58476            DDN= 4.31489            L= 4.9982607
  B= -6.3593119           MOID= .39094499         TP= 2012-Aug-18.8780870959

Comet physical (GM= km^3/s^2; RAD= km):
  GM= n.a.                RAD= n.a.
  M1=  15.3     M2=  17.9     k1=  16.    k2=  5.      PHCOF=  .030

COMET comments 
1: soln ref.= JPL#12, data arc: 2012-09-23 to 2012-12-18
2: k1=16., k2=5., phase coef.=0.03;
*******************************************************************************


*******************************************************************************
Ephemeris / MAIL_REQUEST Mon Mar  1 13:23:18 2021 Pasadena, USA  / Horizons
*******************************************************************************
Target body name: La_Sagra (P/2012 S2)            {source: JPL#12}
Center body name: Sun (10)                        {source: DE431}
Center-site name: BODY CENTER
*******************************************************************************
Start time      : A.D. 1990-Jan-01 00:00:00.0000 TDB
Stop  time      : A.D. 2020-Dec-31 00:00:00.0000 TDB
Step-size       : 10080 minutes
*******************************************************************************
Center geodetic : 0.00000000,0.00000000,0.0000000 {E-lon(deg),Lat(deg),Alt(km)}
Center cylindric: 0.00000000,0.00000000,0.0000000 {E-lon(deg),Dxy(km),Dz(km)}
Center radii    : 696000.0 x 696000.0 x 696000.0 k{Equator, meridian, pole}    
Small perturbers: Yes                             {source: SB431-N16}
Output units    : AU-D
Output type     : GEOMETRIC cartesian states
Output format   : 6 (LT, range, and range-rate)
Reference frame : Ecliptic of J2000.0
*******************************************************************************
Initial IAU76/J2000 heliocentric ecliptic osculating elements (au, days, deg.):
 EPOCH=  2456230.5 ! 2012-Oct-30.0000000 (TDB)    RMSW= n.a.                  
  EC= .6905906287277457   QR= 1.371192077185982   TP= 2456158.3780870959      
  OM= 52.60270731513823   W= 312.0744899879285    IN= 8.581808204347372       
 Equivalent ICRF heliocentric equatorial cartesian coordinates (au, au/d):
  X= 9.066902778143814E-01  Y= 1.224965026080575E+00  Z= 5.466004816661625E-01
 VX=-9.853916935124050E-03 VY= 1.185160019376866E-02 VZ= 7.823050604142633E-03
Comet physical (GM= km^3/s^2; RAD= km):                                        
  GM= n.a.                RAD= n.a.                                           
  M1=  15.3     M2=  17.9     k1=  16.    k2=  5.      PHCOF=  .030           
*******************************************************************************
           JDTDB,            Calendar Date (TDB),                     LT,                     RG,                     RR,
**************************************************************************************************************************
$$SOE
2456292.500000000, A.D. 2012-Dec-31 00:00:00.0000,  1.188811933004519E-02,  2.058364054588210E+00,  7.671895407217945E-03,
2456299.500000000, A.D. 2013-Jan-07 00:00:00.0000,  1.219941827251005E-02,  2.112263795633169E+00,  7.725289136113945E-03,
2456306.500000000, A.D. 2013-Jan-14 00:00:00.0000,  1.251255778787052E-02,  2.166482221996047E+00,  7.763296949024783E-03,
2456313.500000000, A.D. 2013-Jan-21 00:00:00.0000,  1.282695643929263E-02,  2.220918661009804E+00,  7.787886142164688E-03,
2456320.500000000, A.D. 2013-Jan-28 00:00:00.0000,  1.314210751737180E-02,  2.275485378660714E+00,  7.800790025865367E-03,
2456327.500000000, A.D. 2013-Feb-04 00:00:00.0000,  1.345757004765547E-02,  2.330106022589166E+00,  7.803531012461110E-03,
2456334.500000000, A.D. 2013-Feb-11 00:00:00.0000,  1.377296072252848E-02,  2.384714225138934E+00,  7.797443156389323E-03,
2456341.500000000, A.D. 2013-Feb-18 00:00:00.0000,  1.408794673302843E-02,  2.439252362224472E+00,  7.783694258100000E-03,
2456348.500000000, A.D. 2013-Feb-25 00:00:00.0000,  1.440223948683977E-02,  2.493670465635312E+00,  7.763307179448192E-03,
2456355.500000000, A.D. 2013-Mar-04 00:00:00.0000,  1.471558910063195E-02,  2.547925269413974E+00,  7.737176277705102E-03,
2456362.500000000, A.D. 2013-Mar-11 00:00:00.0000,  1.502777948414343E-02,  2.601979358691500E+00,  7.706081435940124E-03,
2456369.500000000, A.D. 2013-Mar-18 00:00:00.0000,  1.533862402025524E-02,  2.655800421715374E+00,  7.670703251752238E-03,
2456376.500000000, A.D. 2013-Mar-25 00:00:00.0000,  1.564796182951569E-02,  2.709360603072029E+00,  7.631636372217751E-03,
2456383.500000000, A.D. 2013-Apr-01 00:00:00.0000,  1.595565452498650E-02,  2.762635941805868E+00,  7.589400553223084E-03,
2456390.500000000, A.D. 2013-Apr-08 00:00:00.0000,  1.626158338177287E-02,  2.815605881338595E+00,  7.544450204935855E-03,
2456397.500000000, A.D. 2013-Apr-15 00:00:00.0000,  1.656564686774852E-02,  2.868252841927497E+00,  7.497182739497542E-03,
2456404.500000000, A.D. 2013-Apr-22 00:00:00.0000,  1.686775848947697E-02,  2.920561847698289E+00,  7.447945831145083E-03,
2456411.500000000, A.D. 2013-Apr-29 00:00:00.0000,  1.716784491099527E-02,  2.972520200922602E+00,  7.397043663537019E-03,
2456418.500000000, A.D. 2013-May-06 00:00:00.0000,  1.746584430542577E-02,  3.024117196608418E+00,  7.344742212292312E-03,
2456425.500000000, A.D. 2013-May-13 00:00:00.0000,  1.776170490506223E-02,  3.075343871455254E+00,  7.291273914759690E-03,
2456432.500000000, A.D. 2013-May-20 00:00:00.0000,  1.805538375007990E-02,  3.126192787200031E+00,  7.236843070001870E-03,
2456439.500000000, A.D. 2013-May-27 00:00:00.0000,  1.834684566219221E-02,  3.176657852911251E+00,  7.181630814378547E-03,
2456446.500000000, A.D. 2013-Jun-03 00:00:00.0000,  1.863606233469724E-02,  3.226734167435399E+00,  7.125795929165433E-03,
2456453.500000000, A.D. 2013-Jun-10 00:00:00.0000,  1.892301144888103E-02,  3.276417866406951E+00,  7.069476393346722E-03,
2456460.500000000, A.D. 2013-Jun-17 00:00:00.0000,  1.920767590218534E-02,  3.325705988609738E+00,  7.012792794865051E-03,
2456467.500000000, A.D. 2013-Jun-24 00:00:00.0000,  1.949004316057103E-02,  3.374596363842161E+00,  6.955850895696499E-03,
2456474.500000000, A.D. 2013-Jul-01 00:00:00.0000,  1.977010469752591E-02,  3.423087515784397E+00,  6.898743458137133E-03,
2456481.500000000, A.D. 2013-Jul-08 00:00:00.0000,  2.004785549996429E-02,  3.471178576447565E+00,  6.841551764900219E-03,
2456488.500000000, A.D. 2013-Jul-15 00:00:00.0000,  2.032329363153135E-02,  3.518869210562225E+00,  6.784346944405713E-03,
2456495.500000000, A.D. 2013-Jul-22 00:00:00.0000,  2.059641984567862E-02,  3.566159548584459E+00,  6.727191103495421E-03,
2456502.500000000, A.D. 2013-Jul-29 00:00:00.0000,  2.086723723982481E-02,  3.613050126815695E+00,  6.670138213196206E-03,
2456509.500000000, A.D. 2013-Aug-05 00:00:00.0000,  2.113575093915042E-02,  3.659541832653430E+00,  6.613234699314906E-03,
2456516.500000000, A.D. 2013-Aug-12 00:00:00.0000,  2.140196780621274E-02,  3.705635854312622E+00,  6.556520357453708E-03,
2456523.500000000, A.D. 2013-Aug-19 00:00:00.0000,  2.166589622050851E-02,  3.751333642658158E+00,  6.500030937525052E-03,
2456530.500000000, A.D. 2013-Aug-26 00:00:00.0000,  2.192754594973268E-02,  3.796636888913992E+00,  6.443799096482261E-03,
2456537.500000000, A.D. 2013-Sep-02 00:00:00.0000,  2.218692798069163E-02,  3.841547495386679E+00,  6.387852252791238E-03,
2456544.500000000, A.D. 2013-Sep-09 00:00:00.0000,  2.244405430425362E-02,  3.886067538230696E+00,  6.332212913474252E-03,
2456551.500000000, A.D. 2013-Sep-16 00:00:00.0000,  2.269893774609049E-02,  3.930199238142287E+00,  6.276900036731950E-03,
2456558.500000000, A.D. 2013-Sep-23 00:00:00.0000,  2.295159183882727E-02,  3.973944938222839E+00,  6.221929709411948E-03,
2456565.500000000, A.D. 2013-Sep-30 00:00:00.0000,  2.320203071344337E-02,  4.017307085175595E+00,  6.167315493340497E-03,
2456572.500000000, A.D. 2013-Oct-07 00:00:00.0000,  2.345026900272909E-02,  4.060288212589652E+00,  6.113068692738488E-03,
2456579.500000000, A.D. 2013-Oct-14 00:00:00.0000,  2.369632175477318E-02,  4.102890925960812E+00,  6.059198581662976E-03,
2456586.500000000, A.D. 2013-Oct-21 00:00:00.0000,  2.394020435430691E-02,  4.145117889072718E+00,  6.005712553719735E-03,
2456593.500000000, A.D. 2013-Oct-28 00:00:00.0000,  2.418193244686480E-02,  4.186971810865701E+00,  5.952616090050993E-03,
2456600.500000000, A.D. 2013-Nov-04 00:00:00.0000,  2.442152185734894E-02,  4.228455431336615E+00,  5.899912571950593E-03,
2456607.500000000, A.D. 2013-Nov-11 00:00:00.0000,  2.465898851507087E-02,  4.269571508560257E+00,  5.847604119515080E-03,
2456614.500000000, A.D. 2013-Nov-18 00:00:00.0000,  2.489434845064016E-02,  4.310322818150635E+00,  5.795693871750443E-03,
2456621.500000000, A.D. 2013-Nov-25 00:00:00.0000,  2.512761783093095E-02,  4.350712159315232E+00,  5.744184915690238E-03,
2456628.500000000, A.D. 2013-Dec-02 00:00:00.0000,  2.535881290623283E-02,  4.390742345704469E+00,  5.693078229024326E-03,
2456635.500000000, A.D. 2013-Dec-09 00:00:00.0000,  2.558794993343420E-02,  4.430416192111317E+00,  5.642373346626972E-03,
